[{"OBJECT_NAME":"STARLINK-36742","OBJECT_ID":"2026-036D","EPOCH":"2026-03-10T12:43:42.053376","MEAN_MOTION":15.82352005,"ECCENTRICITY":0.00039151,"INCLINATION":42.9985,"RA_OF_ASC_NODE":244.6248,"ARG_OF_PERICENTER":243.6251,"MEAN_ANOMALY":116.4219,"EPHEMERIS_TYPE":0,"CLASSIFICATION_TYPE":"U","NORAD_CAT_ID":67907,"ELEMENT_SET_NO":999,"REV_AT_EPOCH":380,"BSTAR":0.0028999316,"MEAN_MOTION_DOT":0.00670159,"MEAN_MOTION_DDOT":0},{"OBJECT_NAME":"STARLINK-36827","OBJECT_ID":"2026-036E","EPOCH":"2026-03-10T20:17:09.377088","MEAN_MOTION":15.82126491,"ECCENTRICITY":0.00022679,"INCLINATION":42.9985,"RA_OF_ASC_NODE":242.6849,"ARG_OF_PERICENTER":279.6488,"MEAN_ANOMALY":80.4127,"EPHEMERIS_TYPE":0,"CLASSIFICATION_TYPE":"U","NORAD_CAT_ID":67908,"ELEMENT_SET_NO":999,"REV_AT_EPOCH":385,"BSTAR":0.00097499616,"MEAN_MOTION_DOT":0.00210941,"MEAN_MOTION_DDOT":0},{"OBJECT_NAME":"STARLINK-36822","OBJECT_ID":"2026-036F","EPOCH":"2026-03-11T06:00:02.000160","MEAN_MOTION":15.79207408,"ECCENTRICITY":0.0001211,"INCLINATION":42.9994,"RA_OF_ASC_NODE":240.2018,"ARG_OF_PERICENTER":270.6056,"MEAN_ANOMALY":238.3924,"EPHEMERIS_TYPE":0,"CLASSIFICATION_TYPE":"U","NORAD_CAT_ID":67909,"ELEMENT_SET_NO":999,"REV_AT_EPOCH":389,"BSTAR":-0.011978105,"MEAN_MOTION_DOT":-0.0192707,"MEAN_MOTION_DDOT":0},{"OBJECT_NAME":"STARLINK-36847","OBJECT_ID":"2026-036G","EPOCH":"2026-03-11T06:00:02.000160","MEAN_MOTION":15.78347201,"ECCENTRICITY":0.00014427,"INCLINATION":42.9994,"RA_OF_ASC_NODE":240.1965,"ARG_OF_PERICENTER":276.8145,"MEAN_ANOMALY":234.0446,"EPHEMERIS_TYPE":0,"CLASSIFICATION_TYPE":"U","NORAD_CAT_ID":67910,"ELEMENT_SET_NO":999,"REV_AT_EPOCH":389,"BSTAR":-0.012466038,"MEAN_MOTION_DOT":-0.0192805,"MEAN_MOTION_DDOT":0},{"OBJECT_NAME":"STARLINK-36736","OBJECT_ID":"2026-036H","EPOCH":"2026-03-10T20:13:55.891200","MEAN_MOTION":15.82077629,"ECCENTRICITY":0.00012431,"INCLINATION":42.9994,"RA_OF_ASC_NODE":242.6667,"ARG_OF_PERICENTER":279.5727,"MEAN_ANOMALY":80.5004,"EPHEMERIS_TYPE":0,"CLASSIFICATION_TYPE":"U","NORAD_CAT_ID":67911,"ELEMENT_SET_NO":999,"REV_AT_EPOCH":385,"BSTAR":0.00097247572,"MEAN_MOTION_DOT":0.00209877,"MEAN_MOTION_DDOT":0},{"OBJECT_NAME":"STARLINK-36676","OBJECT_ID":"2026-036J","EPOCH":"2026-03-10T20:12:50.628960","MEAN_MOTION":15.82142638,"ECCENTRICITY":0.00018417,"INCLINATION":42.9985,"RA_OF_ASC_NODE":242.6598,"ARG_OF_PERICENTER":281.97,"MEAN_ANOMALY":78.0965,"EPHEMERIS_TYPE":0,"CLASSIFICATION_TYPE":"U","NORAD_CAT_ID":67912,"ELEMENT_SET_NO":999,"REV_AT_EPOCH":385,"BSTAR":0.0014537818,"MEAN_MOTION_DOT":0.00319016,"MEAN_MOTION_DDOT":0},{"OBJECT_NAME":"STARLINK-36690","OBJECT_ID":"2026-036K","EPOCH":"2026-03-10T18:40:51.306240","MEAN_MOTION":15.82151648,"ECCENTRICITY":0.00012086,"INCLINATION":42.9982,"RA_OF_ASC_NODE":243.0398,"ARG_OF_PERICENTER":254.9349,"MEAN_ANOMALY":105.139,"EPHEMERIS_TYPE":0,"CLASSIFICATION_TYPE":"U","NORAD_CAT_ID":67913,"ELEMENT_SET_NO":999,"REV_AT_EPOCH":384,"BSTAR":0.0015768973,"MEAN_MOTION_DOT":0.00347378,"MEAN_MOTION_DDOT":0},{"OBJECT_NAME":"STARLINK-36724","OBJECT_ID":"2026-036L","EPOCH":"2026-03-10T20:09:35.585280","MEAN_MOTION":15.82293235,"ECCENTRICITY":0.00015541,"INCLINATION":42.9985,"RA_OF_ASC_NODE":242.6402,"ARG_OF_PERICENTER":269.7029,"MEAN_ANOMALY":90.3665,"EPHEMERIS_TYPE":0,"CLASSIFICATION_TYPE":"U","NORAD_CAT_ID":67914,"ELEMENT_SET_NO":999,"REV_AT_EPOCH":385,"BSTAR":0.0027492559,"MEAN_MOTION_DOT":0.00630705,"MEAN_MOTION_DDOT":0},{"OBJECT_NAME":"STARLINK-36723","OBJECT_ID":"2026-036M","EPOCH":"2026-03-10T18:39:46.639296","MEAN_MOTION":15.82158621,"ECCENTRICITY":0.00015662,"INCLINATION":42.9988,"RA_OF_ASC_NODE":243.0347,"ARG_OF_PERICENTER":309.0105,"MEAN_ANOMALY":51.0627,"EPHEMERIS_TYPE":0,"CLASSIFICATION_TYPE":"U","NORAD_CAT_ID":67915,"ELEMENT_SET_NO":999,"REV_AT_EPOCH":384,"BSTAR":0.0018486261,"MEAN_MOTION_DOT":0.00410484,"MEAN_MOTION_DDOT":0},{"OBJECT_NAME":"STARLINK-36721","OBJECT_ID":"2026-036N","EPOCH":"2026-03-09T22:55:46.421760","MEAN_MOTION":15.82146319,"ECCENTRICITY":0.00020473,"INCLINATION":42.9991,"RA_OF_ASC_NODE":248.053,"ARG_OF_PERICENTER":267.612,"MEAN_ANOMALY":92.4517,"EPHEMERIS_TYPE":0,"CLASSIFICATION_TYPE":"U","NORAD_CAT_ID":67916,"ELEMENT_SET_NO":999,"REV_AT_EPOCH":371,"BSTAR":0.0016598112,"MEAN_MOTION_DOT":0.00366391,"MEAN_MOTION_DDOT":0},{"OBJECT_NAME":"STARLINK-36722","OBJECT_ID":"2026-036P","EPOCH":"2026-03-10T20:07:27.647616","MEAN_MOTION":15.82148661,"ECCENTRICITY":0.0002027,"INCLINATION":42.9984,"RA_OF_ASC_NODE":242.6288,"ARG_OF_PERICENTER":314.212,"MEAN_ANOMALY":45.8585,"EPHEMERIS_TYPE":0,"CLASSIFICATION_TYPE":"U","NORAD_CAT_ID":67917,"ELEMENT_SET_NO":999,"REV_AT_EPOCH":385,"BSTAR":0.0023594797,"MEAN_MOTION_DOT":0.00531298,"MEAN_MOTION_DDOT":0},{"OBJECT_NAME":"STARLINK-36341","OBJECT_ID":"2026-036Q","EPOCH":"2026-03-09T21:21:52.154208","MEAN_MOTION":15.82409136,"ECCENTRICITY":0.0002259,"INCLINATION":42.9987,"RA_OF_ASC_NODE":248.4207,"ARG_OF_PERICENTER":306.3888,"MEAN_ANOMALY":53.6775,"EPHEMERIS_TYPE":0,"CLASSIFICATION_TYPE":"U","NORAD_CAT_ID":67918,"ELEMENT_SET_NO":999,"REV_AT_EPOCH":370,"BSTAR":0.0033126,"MEAN_MOTION_DOT":0.00777423,"MEAN_MOTION_DDOT":0},{"OBJECT_NAME":"STARLINK-36663","OBJECT_ID":"2026-036R","EPOCH":"2026-03-10T20:06:22.446720","MEAN_MOTION":15.82079097,"ECCENTRICITY":0.00015514,"INCLINATION":42.9983,"RA_OF_ASC_NODE":242.6233,"ARG_OF_PERICENTER":269.189,"MEAN_ANOMALY":90.8804,"EPHEMERIS_TYPE":0,"CLASSIFICATION_TYPE":"U","NORAD_CAT_ID":67919,"ELEMENT_SET_NO":999,"REV_AT_EPOCH":385,"BSTAR":0.00081405034,"MEAN_MOTION_DOT":0.00174897,"MEAN_MOTION_DDOT":0},{"OBJECT_NAME":"STARLINK-36375","OBJECT_ID":"2026-036S","EPOCH":"2026-03-10T20:04:13.073952","MEAN_MOTION":15.82109736,"ECCENTRICITY":6.906e-5,"INCLINATION":42.999,"RA_OF_ASC_NODE":242.6117,"ARG_OF_PERICENTER":277.9892,"MEAN_ANOMALY":82.0901,"EPHEMERIS_TYPE":0,"CLASSIFICATION_TYPE":"U","NORAD_CAT_ID":67920,"ELEMENT_SET_NO":999,"REV_AT_EPOCH":385,"BSTAR":0.0013842814,"MEAN_MOTION_DOT":0.00302702,"MEAN_MOTION_DDOT":0},{"OBJECT_NAME":"STARLINK-36405","OBJECT_ID":"2026-036T","EPOCH":"2026-03-11T06:00:02.000160","MEAN_MOTION":15.72049624,"ECCENTRICITY":0.0001514,"INCLINATION":42.9995,"RA_OF_ASC_NODE":240.1708,"ARG_OF_PERICENTER":273.5344,"MEAN_ANOMALY":247.2839,"EPHEMERIS_TYPE":0,"CLASSIFICATION_TYPE":"U","NORAD_CAT_ID":67921,"ELEMENT_SET_NO":999,"REV_AT_EPOCH":389,"BSTAR":-0.016383695,"MEAN_MOTION_DOT":-0.0195805,"MEAN_MOTION_DDOT":0},{"OBJECT_NAME":"STARLINK-36383","OBJECT_ID":"2026-036U","EPOCH":"2026-03-10T20:02:03.777216","MEAN_MOTION":15.8219468,"ECCENTRICITY":0.00026589,"INCLINATION":42.9987,"RA_OF_ASC_NODE":242.5978,"ARG_OF_PERICENTER":294.5528,"MEAN_ANOMALY":65.5066,"EPHEMERIS_TYPE":0,"CLASSIFICATION_TYPE":"U","NORAD_CAT_ID":67922,"ELEMENT_SET_NO":999,"REV_AT_EPOCH":385,"BSTAR":0.0029190758,"MEAN_MOTION_DOT":0.00669619,"MEAN_MOTION_DDOT":0}]
